NORAD_CAT_ID,OBJECT_NAME,OBJECT_TYPE,EPOCH,MEAN_MOTION,ECCENTRICITY,INCLINATION,RA_OF_ASC_NODE,ARG_OF_PERICENTER,MEAN_ANOMALY,BSTAR,MEAN_MOTION_DOT,MEAN_MOTION_DDOT,TLE_LINE0,TLE_LINE1,TLE_LINE2,SEMIMAJOR_AXIS,PERIOD,APOGEE,PERIGEE,DECAYED
56476.0,STARLINK-5545,PAYLOAD,2024-02-13 19:24:59,14.98331572,0.0003109,69.9995,227.8497,272.3594,87.7209,-0.00020134,-2.495e-05,0.0,0 STARLINK-5545,1 56476U 23064AE  24044.80902383 -.00002495  00000-0 -20134-3 0  9995,2 56476  69.9995 227.8497 0003109 272.3594  87.7209 14.98331572 43026,6950.188,96.107,574.214,569.892,0.0
56476.0,STARLINK-5545,PAYLOAD,2024-02-13 22:37:15,14.98330122,0.000284,70.0002,227.5134,271.5671,88.5163,-0.00021463,-2.653e-05,0.0,0 STARLINK-5545,1 56476U 23064AE  24044.94254527 -.00002653  00000-0 -21463-3 0  9992,2 56476  70.0002 227.5134 0002840 271.5671  88.5163 14.98330122 42680,6950.193,96.107,574.031,570.084,0.0
56476.0,STARLINK-5545,PAYLOAD,2024-02-14 14:38:36,14.98322232,0.0003105,69.9995,225.8296,274.6306,85.4498,5.5436e-05,5.68e-06,0.0,0 STARLINK-5545,1 56476U 23064AE  24045.61014356  .00000568  00000-0  55436-4 0  9990,2 56476  69.9995 225.8296 0003105 274.6306  85.4498 14.98322232 42783,6950.217,96.107,574.24,569.924,0.0
56476.0,STARLINK-5545,PAYLOAD,2024-02-14 21:03:08,14.98324108,0.0003072,69.9996,225.1565,273.7605,86.3202,7.4451e-05,7.95e-06,0.0,0 STARLINK-5545,1 56476U 23064AE  24045.87718308  .00000795  00000-0  74451-4 0  9996,2 56476  69.9996 225.1565 0003072 273.7605  86.3202 14.98324108 42823,6950.211,96.107,574.211,569.941,0.0
56476.0,STARLINK-5545,PAYLOAD,2024-02-15 14:40:37,14.98323974,0.0003127,69.9996,223.3051,274.4942,85.586,5.082e-05,5.13e-06,0.0,0 STARLINK-5545,1 56476U 23064AE  24046.61154677  .00000513  00000-0  50820-4 0  9994,2 56476  69.9996 223.3051 0003127 274.4942  85.5860 14.98323974 42939,6950.212,96.107,574.25,569.903,0.0
56476.0,STARLINK-5545,PAYLOAD,2024-02-15 19:29:01,14.98324956,0.0003076,69.9997,222.8,272.8875,87.1932,6.0023e-05,6.23e-06,0.0,0 STARLINK-5545,1 56476U 23064AE  24046.81182643  .00000623  00000-0  60023-4 0  9998,2 56476  69.9997 222.8000 0003076 272.8875  87.1932 14.98324956 42960,6950.208,96.107,574.211,569.936,0.0
56476.0,STARLINK-5545,PAYLOAD,2024-02-15 21:05:09,14.9832551,0.0003089,69.9997,222.6317,273.1929,86.8877,6.3907e-05,6.7e-06,0.0,0 STARLINK-5545,1 56476U 23064AE  24046.87858615  .00000670  00000-0  63907-4 0  9999,2 56476  69.9997 222.6317 0003089 273.1929  86.8877 14.98325510 43330,6950.207,96.107,574.219,569.925,0.0
56476.0,STARLINK-5545,PAYLOAD,2024-02-16 14:42:38,14.98335277,0.0002821,70.0,220.7799,273.4677,86.6159,8.8134e-05,9.59e-06,0.0,0 STARLINK-5545,1 56476U 23064AE  24047.61294054  .00000959  00000-0  88134-4 0  9992,2 56476  70.0000 220.7799 0002821 273.4677  86.6159 14.98335277 43081,6950.177,96.107,574.002,570.081,0.0
56476.0,STARLINK-5545,PAYLOAD,2024-02-16 19:30:59,14.98365503,0.0002943,69.9998,220.2751,269.6357,90.4465,0.0003986,4.671e-05,0.0,0 STARLINK-5545,1 56476U 23064AE  24047.81318981  .00004671  00000-0  39860-3 0  9996,2 56476  69.9998 220.2751 0002943 269.6357  90.4465 14.98365503 43475,6950.083,96.105,573.994,569.903,0.0
56476.0,STARLINK-5545,PAYLOAD,2024-02-16 21:07:07,14.98366535,0.0002965,69.9998,220.1067,270.4823,89.5996,0.00040508,4.748e-05,0.0,0 STARLINK-5545,1 56476U 23064AE  24047.87994764  .00004748  00000-0  40508-3 0  9997,2 56476  69.9998 220.1067 0002965 270.4823  89.5996 14.98366535 43122,6950.08,96.105,574.006,569.884,0.0
56476.0,STARLINK-5545,PAYLOAD,2024-02-17 11:32:21,14.98343003,0.0001916,69.9998,218.5916,286.8847,73.2102,0.00011188,1.243e-05,0.0,0 STARLINK-5545,1 56476U 23064AE  24048.48080774  .00001243  00000-0  11188-3 0  9991,2 56476  69.9998 218.5916 0001916 286.8847  73.2102 14.98343003 43571,6950.153,96.106,573.349,570.686,0.0
56476.0,STARLINK-5545,PAYLOAD,2024-02-17 14:44:39,14.98321816,0.0002914,69.9999,218.2559,278.2627,81.8202,-0.00012373,-1.569e-05,0.0,0 STARLINK-5545,1 56476U 23064AE  24048.61434443 -.00001569  00000-0 -12373-3 0  9992,2 56476  69.9999 218.2559 0002914 278.2627  81.8202 14.98321816 43239,6950.218,96.108,574.108,570.058,0.0
56476.0,STARLINK-5545,PAYLOAD,2024-02-17 19:33:03,14.98321919,0.0002996,69.9999,217.7501,275.6396,84.4422,-0.00011788,-1.499e-05,0.0,0 STARLINK-5545,1 56476U 23064AE  24048.81462459 -.00001499  00000-0 -11788-3 0  9993,2 56476  69.9999 217.7501 0002996 275.6396  84.4422 14.98321919 43624,6950.218,96.108,574.165,570.001,0.0
56476.0,STARLINK-5545,PAYLOAD,2024-02-17 21:09:11,14.98322419,0.0002994,69.9999,217.5817,275.6087,84.473,-0.00011134,-1.421e-05,0.0,0 STARLINK-5545,1 56476U 23064AE  24048.88138424 -.00001421  00000-0 -11134-3 0  9992,2 56476  69.9999 217.5817 0002994 275.6087  84.4730 14.98322419 43276,6950.216,96.107,574.162,570.0,0.0
56476.0,STARLINK-5545,PAYLOAD,2024-02-18 14:46:40,14.98324436,0.0002828,70.0003,215.7302,277.0973,82.9864,-0.00016749,-2.091e-05,0.0,0 STARLINK-5545,1 56476U 23064AE  24049.61574727 -.00002091  00000-0 -16749-3 0  9995,2 56476  70.0003 215.7302 0002828 277.0973  82.9864 14.98324436 43384,6950.21,96.107,574.041,570.11,0.0
56476.0,STARLINK-5545,PAYLOAD,2024-02-18 19:35:04,14.98341922,0.0002919,70.0,215.2252,275.0401,85.0425,-0.00039545,-4.81e-05,0.0,0 STARLINK-5545,1 56476U 23064AE  24049.81602252 -.00004810  00000-0 -39545-3 0  9992,2 56476  70.0000 215.2252 0002919 275.0401  85.0425 14.98341922 43774,6950.156,96.106,574.05,569.992,0.0
56476.0,STARLINK-5545,PAYLOAD,2024-02-18 21:11:12,14.98341661,0.0002918,70.0,215.0569,275.1336,84.949,-0.00038736,-4.713e-05,0.0,0 STARLINK-5545,1 56476U 23064AE  24049.88278205 -.00004713  00000-0 -38736-3 0  9999,2 56476  70.0000 215.0569 0002918 275.1336  84.9490 14.98341661 43422,6950.157,96.106,574.05,569.994,0.0
56476.0,STARLINK-5545,PAYLOAD,2024-02-19 11:36:24,14.98318894,0.0002944,70.0,213.542,278.4264,81.6561,0.00011534,1.283e-05,0.0,0 STARLINK-5545,1 56476U 23064AE  24050.48362197  .00001283  00000-0  11534-3 0  9995,2 56476  70.0000 213.5420 0002944 278.4264  81.6561 14.98318894 43870,6950.227,96.108,574.138,570.046,0.0
56476.0,STARLINK-5545,PAYLOAD,2024-02-19 14:48:41,14.98318823,0.0002951,70.0,213.2054,278.368,81.7144,0.00011079,1.229e-05,0.0,0 STARLINK-5545,1 56476U 23064AE  24050.61714313  .00001229  00000-0  11079-3 0  9995,2 56476  70.0000 213.2054 0002951 278.3680  81.7144 14.98318823 43532,6950.227,96.108,574.143,570.041,0.0
56476.0,STARLINK-5545,PAYLOAD,2024-02-19 21:13:13,14.98322913,0.0002958,70.0001,212.532,278.9248,81.1576,0.00013262,1.489e-05,0.0,0 STARLINK-5545,1 56476U 23064AE  24050.88418160  .00001489  00000-0  13262-3 0  9999,2 56476  70.0001 212.5320 0002958 278.9248  81.1576 14.98322913 43576,6950.215,96.107,574.136,570.024,0.0
56476.0,STARLINK-5545,PAYLOAD,2024-02-20 11:38:26,14.98323751,0.0002805,70.0002,211.0166,276.7917,83.2923,8.9e-05,9.69e-06,0.0,0 STARLINK-5545,1 56476U 23064AE  24051.48502492  .00000969  00000-0  89000-4 0  9994,2 56476  70.0002 211.0166 0002805 276.7917  83.2923 14.98323751 44020,6950.212,96.107,574.027,570.128,0.0
56476.0,STARLINK-5545,PAYLOAD,2024-02-20 14:50:42,14.98324686,0.0002878,70.0,210.6805,276.5997,83.4835,7.8379e-05,8.42e-06,0.0,0 STARLINK-5545,1 56476U 23064AE  24051.61854511  .00000842  00000-0  78379-4 0  9998,2 56476  70.0000 210.6805 0002878 276.5997  83.4835 14.98324686 43682,6950.209,96.107,574.075,570.074,0.0
56476.0,STARLINK-5545,PAYLOAD,2024-02-20 19:39:06,14.98327301,0.0002942,70.0001,210.176,276.6439,83.4385,9.4275e-05,1.032e-05,0.0,0 STARLINK-5545,1 56476U 23064AE  24051.81882337  .00001032  00000-0  94275-4 0  9992,2 56476  70.0001 210.1760 0002942 276.6439  83.4385 14.98327301 43713,6950.201,96.107,574.111,570.021,0.0
56476.0,STARLINK-5545,PAYLOAD,2024-02-21 11:40:26,14.98330831,0.0002886,70.0004,208.4928,275.7931,84.2899,3.5808e-05,3.34e-06,0.0,0 STARLINK-5545,1 56476U 23064AE  24052.48642292  .00000334  00000-0  35808-4 0  9991,2 56476  70.0004 208.4928 0002886 275.7931  84.2899 14.98330831 44178,6950.19,96.107,574.061,570.049,0.0
56476.0,STARLINK-5545,PAYLOAD,2024-02-21 14:52:43,14.98330167,0.0002897,70.0004,208.1562,275.7533,84.3296,2.7978e-05,2.41e-06,0.0,0 STARLINK-5545,1 56476U 23064AE  24052.61994341  .00000241  00000-0  27978-4 0  9997,2 56476  70.0004 208.1562 0002897 275.7533  84.3296 14.98330167 43835,6950.192,96.107,574.071,570.044,0.0
56476.0,STARLINK-5545,PAYLOAD,2024-02-21 19:41:07,14.98331646,0.0002913,70.0004,207.6514,275.1333,84.9493,2.6182e-05,2.19e-06,0.0,0 STARLINK-5545,1 56476U 23064AE  24052.82022216  .00000219  00000-0  26182-4 0  9994,2 56476  70.0004 207.6514 0002913 275.1333  84.9493 14.98331646 43868,6950.188,96.107,574.077,570.028,0.0
56476.0,STARLINK-5545,PAYLOAD,2024-02-22 11:42:28,14.98328905,0.0002923,70.0005,205.9684,275.485,84.5976,-1.3711e-05,-2.57e-06,0.0,0 STARLINK-5545,1 56476U 23064AE  24053.48782468 -.00000257  00000-0 -13711-4 0  9997,2 56476  70.0005 205.9684 0002923 275.4850  84.5976 14.98328905 44324,6950.196,96.107,574.093,570.03,0.0
56476.0,STARLINK-5545,PAYLOAD,2024-02-22 14:54:44,14.98328826,0.0002928,70.0005,205.6318,275.4662,84.6162,-1.4493e-05,-2.66e-06,0.0,0 STARLINK-5545,1 56476U 23064AE  24053.62134475 -.00000266  00000-0 -14493-4 0  9990,2 56476  70.0005 205.6318 0002928 275.4662  84.6162 14.98328826 43982,6950.197,96.107,574.097,570.027,0.0
56476.0,STARLINK-5545,PAYLOAD,2024-02-22 19:43:08,14.98330408,0.0002967,70.0005,205.1263,274.0461,86.0359,-1.2354e-05,-2.4e-06,0.0,0 STARLINK-5545,1 56476U 23064AE  24053.82162331 -.00000240  00000-0 -12354-4 0  9990,2 56476  70.0005 205.1263 0002967 274.0461  86.0359 14.98330408 44019,6950.192,96.107,574.119,569.995,0.0
56476.0,STARLINK-5545,PAYLOAD,2024-02-23 11:44:28,14.9833004,0.0003001,70.0005,203.4432,273.7687,86.3129,7.8422e-06,1e-08,0.0,0 STARLINK-5545,1 56476U 23064AE  24054.48922217  .00000001  00000-0  78422-5 0  9992,2 56476  70.0005 203.4432 0003001 273.7687  86.3129 14.98330040 44474,6950.193,96.107,574.144,569.972,0.0
